[{"OBJECT_NAME":"ONEWEB-0559","OBJECT_ID":"2023-043Q","EPOCH":"2025-09-25T02:46:37.839072","MEAN_MOTION":13.21825317,"ECCENTRICITY":0.00015123,"INCLINATION":87.9187,"RA_OF_ASC_NODE":296.876,"ARG_OF_PERICENTER":96.5722,"MEAN_ANOMALY":263.5585,"EPHEMERIS_TYPE":0,"CLASSIFICATION_TYPE":"U","NORAD_CAT_ID":56060,"ELEMENT_SET_NO":999,"REV_AT_EPOCH":12323,"BSTAR":0.00020973897,"MEAN_MOTION_DOT":1.0e-6,"MEAN_MOTION_DDOT":0},{"OBJECT_NAME":"ONEWEB-0566","OBJECT_ID":"2023-043R","EPOCH":"2025-09-25T02:37:32.652480","MEAN_MOTION":13.21825233,"ECCENTRICITY":0.000167,"INCLINATION":87.9184,"RA_OF_ASC_NODE":296.875,"ARG_OF_PERICENTER":101.4092,"MEAN_ANOMALY":258.723,"EPHEMERIS_TYPE":0,"CLASSIFICATION_TYPE":"U","NORAD_CAT_ID":56061,"ELEMENT_SET_NO":999,"REV_AT_EPOCH":12321,"BSTAR":0.00024397224,"MEAN_MOTION_DOT":1.14e-6,"MEAN_MOTION_DDOT":0},{"OBJECT_NAME":"ONEWEB-0568","OBJECT_ID":"2023-043S","EPOCH":"2025-09-25T02:03:10.501344","MEAN_MOTION":13.16595158,"ECCENTRICITY":0.00021862,"INCLINATION":87.897,"RA_OF_ASC_NODE":281.5968,"ARG_OF_PERICENTER":90.4946,"MEAN_ANOMALY":269.6435,"EPHEMERIS_TYPE":0,"CLASSIFICATION_TYPE":"U","NORAD_CAT_ID":56062,"ELEMENT_SET_NO":999,"REV_AT_EPOCH":12409,"BSTAR":-3.6886036e-5,"MEAN_MOTION_DOT":-1.0e-8,"MEAN_MOTION_DDOT":0},{"OBJECT_NAME":"ONEWEB-0574","OBJECT_ID":"2023-043T","EPOCH":"2025-09-25T07:55:28.352064","MEAN_MOTION":13.2182688,"ECCENTRICITY":0.00019069,"INCLINATION":87.9188,"RA_OF_ASC_NODE":296.8194,"ARG_OF_PERICENTER":87.6937,"MEAN_ANOMALY":272.4416,"EPHEMERIS_TYPE":0,"CLASSIFICATION_TYPE":"U","NORAD_CAT_ID":56063,"ELEMENT_SET_NO":999,"REV_AT_EPOCH":12328,"BSTAR":4.7238129e-5,"MEAN_MOTION_DOT":3.3e-7,"MEAN_MOTION_DDOT":0},{"OBJECT_NAME":"ONEWEB-0575","OBJECT_ID":"2023-043U","EPOCH":"2025-09-25T07:22:20.555040","MEAN_MOTION":13.16595777,"ECCENTRICITY":0.00021172,"INCLINATION":87.8966,"RA_OF_ASC_NODE":281.5562,"ARG_OF_PERICENTER":79.926,"MEAN_ANOMALY":280.211,"EPHEMERIS_TYPE":0,"CLASSIFICATION_TYPE":"U","NORAD_CAT_ID":56064,"ELEMENT_SET_NO":999,"REV_AT_EPOCH":12411,"BSTAR":5.6276685e-5,"MEAN_MOTION_DOT":3.4e-7,"MEAN_MOTION_DDOT":0},{"OBJECT_NAME":"ONEWEB-0576","OBJECT_ID":"2023-043V","EPOCH":"2025-09-25T06:54:59.645376","MEAN_MOTION":13.16594278,"ECCENTRICITY":0.00020598,"INCLINATION":87.8978,"RA_OF_ASC_NODE":281.5558,"ARG_OF_PERICENTER":88.1358,"MEAN_ANOMALY":272.0009,"EPHEMERIS_TYPE":0,"CLASSIFICATION_TYPE":"U","NORAD_CAT_ID":56065,"ELEMENT_SET_NO":999,"REV_AT_EPOCH":12410,"BSTAR":7.4336068e-5,"MEAN_MOTION_DOT":4.1e-7,"MEAN_MOTION_DDOT":0},{"OBJECT_NAME":"ONEWEB-0577","OBJECT_ID":"2023-043W","EPOCH":"2025-09-25T07:04:07.576896","MEAN_MOTION":13.16594392,"ECCENTRICITY":0.00021559,"INCLINATION":87.8976,"RA_OF_ASC_NODE":281.5555,"ARG_OF_PERICENTER":73.6185,"MEAN_ANOMALY":286.5182,"EPHEMERIS_TYPE":0,"CLASSIFICATION_TYPE":"U","NORAD_CAT_ID":56066,"ELEMENT_SET_NO":999,"REV_AT_EPOCH":12413,"BSTAR":-0.00024242398,"MEAN_MOTION_DOT":-8.0e-7,"MEAN_MOTION_DDOT":0},{"OBJECT_NAME":"ONEWEB-0578","OBJECT_ID":"2023-043X","EPOCH":"2025-09-25T02:10:17.386464","MEAN_MOTION":13.21827143,"ECCENTRICITY":0.00021463,"INCLINATION":87.9182,"RA_OF_ASC_NODE":296.8767,"ARG_OF_PERICENTER":93.197,"MEAN_ANOMALY":266.941,"EPHEMERIS_TYPE":0,"CLASSIFICATION_TYPE":"U","NORAD_CAT_ID":56067,"ELEMENT_SET_NO":999,"REV_AT_EPOCH":12321,"BSTAR":0.00020366628,"MEAN_MOTION_DOT":9.7e-7,"MEAN_MOTION_DDOT":0},{"OBJECT_NAME":"ONEWEB-0579","OBJECT_ID":"2023-043Y","EPOCH":"2025-09-25T01:56:40.443360","MEAN_MOTION":13.21825916,"ECCENTRICITY":0.00016233,"INCLINATION":87.9185,"RA_OF_ASC_NODE":296.8655,"ARG_OF_PERICENTER":94.1411,"MEAN_ANOMALY":265.9908,"EPHEMERIS_TYPE":0,"CLASSIFICATION_TYPE":"U","NORAD_CAT_ID":56068,"ELEMENT_SET_NO":999,"REV_AT_EPOCH":12322,"BSTAR":7.818053e-5,"MEAN_MOTION_DOT":4.5e-7,"MEAN_MOTION_DDOT":0},{"OBJECT_NAME":"ONEWEB-0581","OBJECT_ID":"2023-043Z","EPOCH":"2025-09-25T07:13:13.610208","MEAN_MOTION":13.16591943,"ECCENTRICITY":0.00018207,"INCLINATION":87.8964,"RA_OF_ASC_NODE":281.5721,"ARG_OF_PERICENTER":77.2704,"MEAN_ANOMALY":282.8631,"EPHEMERIS_TYPE":0,"CLASSIFICATION_TYPE":"U","NORAD_CAT_ID":56069,"ELEMENT_SET_NO":999,"REV_AT_EPOCH":12410,"BSTAR":-0.00020067742,"MEAN_MOTION_DOT":-6.4e-7,"MEAN_MOTION_DDOT":0},{"OBJECT_NAME":"ONEWEB-0609","OBJECT_ID":"2023-043AA","EPOCH":"2025-09-25T02:58:31.037376","MEAN_MOTION":13.15550828,"ECCENTRICITY":0.00018436,"INCLINATION":87.9013,"RA_OF_ASC_NODE":312.1133,"ARG_OF_PERICENTER":98.3273,"MEAN_ANOMALY":261.8066,"EPHEMERIS_TYPE":0,"CLASSIFICATION_TYPE":"U","NORAD_CAT_ID":56070,"ELEMENT_SET_NO":999,"REV_AT_EPOCH":12158,"BSTAR":0.0004186476,"MEAN_MOTION_DOT":1.7e-6,"MEAN_MOTION_DDOT":0},{"OBJECT_NAME":"ONEWEB-0613","OBJECT_ID":"2023-043AB","EPOCH":"2025-09-25T02:51:40.599360","MEAN_MOTION":13.15551512,"ECCENTRICITY":0.00015871,"INCLINATION":87.9011,"RA_OF_ASC_NODE":312.1283,"ARG_OF_PERICENTER":102.0343,"MEAN_ANOMALY":258.0965,"EPHEMERIS_TYPE":0,"CLASSIFICATION_TYPE":"U","NORAD_CAT_ID":56071,"ELEMENT_SET_NO":999,"REV_AT_EPOCH":12158,"BSTAR":0.00051044911,"MEAN_MOTION_DOT":2.05e-6,"MEAN_MOTION_DDOT":0},{"OBJECT_NAME":"ONEWEB-0630","OBJECT_ID":"2023-043AC","EPOCH":"2025-09-25T04:34:20.260128","MEAN_MOTION":13.15549614,"ECCENTRICITY":0.0001589,"INCLINATION":87.9008,"RA_OF_ASC_NODE":312.0868,"ARG_OF_PERICENTER":102.0173,"MEAN_ANOMALY":258.1136,"EPHEMERIS_TYPE":0,"CLASSIFICATION_TYPE":"U","NORAD_CAT_ID":56072,"ELEMENT_SET_NO":999,"REV_AT_EPOCH":12158,"BSTAR":0.00035059933,"MEAN_MOTION_DOT":1.45e-6,"MEAN_MOTION_DDOT":0},{"OBJECT_NAME":"ONEWEB-0632","OBJECT_ID":"2023-043AD","EPOCH":"2025-09-25T02:37:58.263168","MEAN_MOTION":13.15546957,"ECCENTRICITY":0.00017665,"INCLINATION":87.9006,"RA_OF_ASC_NODE":312.1228,"ARG_OF_PERICENTER":90.3188,"MEAN_ANOMALY":269.8145,"EPHEMERIS_TYPE":0,"CLASSIFICATION_TYPE":"U","NORAD_CAT_ID":56073,"ELEMENT_SET_NO":999,"REV_AT_EPOCH":12157,"BSTAR":0.00062029674,"MEAN_MOTION_DOT":2.46e-6,"MEAN_MOTION_DDOT":0},{"OBJECT_NAME":"ONEWEB-0633","OBJECT_ID":"2023-043AE","EPOCH":"2025-09-25T04:18:20.929824","MEAN_MOTION":13.15550387,"ECCENTRICITY":0.00016541,"INCLINATION":87.9004,"RA_OF_ASC_NODE":312.0725,"ARG_OF_PERICENTER":109.3276,"MEAN_ANOMALY":250.8033,"EPHEMERIS_TYPE":0,"CLASSIFICATION_TYPE":"U","NORAD_CAT_ID":56074,"ELEMENT_SET_NO":999,"REV_AT_EPOCH":12156,"BSTAR":0.00032965601,"MEAN_MOTION_DOT":1.37e-6,"MEAN_MOTION_DDOT":0},{"OBJECT_NAME":"ONEWEB-0634","OBJECT_ID":"2023-043AF","EPOCH":"2025-09-25T02:08:17.595456","MEAN_MOTION":13.15548401,"ECCENTRICITY":0.00020806,"INCLINATION":87.9015,"RA_OF_ASC_NODE":312.1349,"ARG_OF_PERICENTER":103.9413,"MEAN_ANOMALY":256.1949,"EPHEMERIS_TYPE":0,"CLASSIFICATION_TYPE":"U","NORAD_CAT_ID":56075,"ELEMENT_SET_NO":999,"REV_AT_EPOCH":12154,"BSTAR":-0.00072554777,"MEAN_MOTION_DOT":-2.6e-6,"MEAN_MOTION_DDOT":0}]
