ONEWEB-0559             
1 56060U 23043Q   25268.11571573  .00000100  00000+0  20974-3 0  9997
2 56060  87.9187 296.8760 0001512  96.5722 263.5585 13.21825317123235
ONEWEB-0566             
1 56061U 23043R   25268.10940570  .00000114  00000+0  24397-3 0  9992
2 56061  87.9184 296.8750 0001670 101.4092 258.7230 13.21825233123211
ONEWEB-0568             
1 56062U 23043S   25268.08553821 -.00000001  00000+0 -36886-4 0  9993
2 56062  87.8970 281.5968 0002186  90.4946 269.6435 13.16595158124093
ONEWEB-0574             
1 56063U 23043T   25268.33018926  .00000033  00000+0  47238-4 0  9990
2 56063  87.9188 296.8194 0001906  87.6937 272.4416 13.21826880123289
ONEWEB-0575             
1 56064U 23043U   25268.30718235  .00000034  00000+0  56277-4 0  9992
2 56064  87.8966 281.5562 0002117  79.9260 280.2110 13.16595777124114
ONEWEB-0576             
1 56065U 23043V   25268.28819034  .00000041  00000+0  74336-4 0  9993
2 56065  87.8978 281.5558 0002059  88.1358 272.0009 13.16594278124108
ONEWEB-0577             
1 56066U 23043W   25268.29453214 -.00000080  00000+0 -24242-3 0  9994
2 56066  87.8976 281.5555 0002155  73.6185 286.5182 13.16594392124130
ONEWEB-0578             
1 56067U 23043X   25268.09047901  .00000097  00000+0  20367-3 0  9995
2 56067  87.9182 296.8767 0002146  93.1970 266.9410 13.21827143123217
ONEWEB-0579             
1 56068U 23043Y   25268.08102365  .00000045  00000+0  78181-4 0  9992
2 56068  87.9185 296.8655 0001623  94.1411 265.9908 13.21825916123225
ONEWEB-0581             
1 56069U 23043Z   25268.30085197 -.00000064  00000+0 -20068-3 0  9994
2 56069  87.8964 281.5721 0001820  77.2704 282.8631 13.16591943124104
ONEWEB-0609             
1 56070U 23043AA  25268.12397034  .00000170  00000+0  41865-3 0  9996
2 56070  87.9013 312.1133 0001843  98.3273 261.8066 13.15550828121584
ONEWEB-0613             
1 56071U 23043AB  25268.11921990  .00000205  00000+0  51045-3 0  9990
2 56071  87.9011 312.1283 0001587 102.0343 258.0965 13.15551512121582
ONEWEB-0630             
1 56072U 23043AC  25268.19051227  .00000145  00000+0  35060-3 0  9998
2 56072  87.9008 312.0868 0001589 102.0173 258.1136 13.15549614121581
ONEWEB-0632             
1 56073U 23043AD  25268.10970212  .00000246  00000+0  62030-3 0  9993
2 56073  87.9006 312.1228 0001766  90.3188 269.8145 13.15546957121578
ONEWEB-0633             
1 56074U 23043AE  25268.17940891  .00000137  00000+0  32966-3 0  9995
2 56074  87.9004 312.0725 0001654 109.3276 250.8033 13.15550387121560
ONEWEB-0634             
1 56075U 23043AF  25268.08909254 -.00000260  00000+0 -72555-3 0  9991
2 56075  87.9015 312.1349 0002080 103.9413 256.1949 13.15548401121540
